[{"OBJECT_NAME":"STARLINK-4442","OBJECT_ID":"2022-099R","EPOCH":"2026-03-09T22:38:47.936832","MEAN_MOTION":15.05610071,"ECCENTRICITY":0.00014944,"INCLINATION":97.6042,"RA_OF_ASC_NODE":191.4538,"ARG_OF_PERICENTER":88.5529,"MEAN_ANOMALY":271.5869,"EPHEMERIS_TYPE":0,"CLASSIFICATION_TYPE":"U","NORAD_CAT_ID":53480,"ELEMENT_SET_NO":999,"REV_AT_EPOCH":19608,"BSTAR":0.00075477308,"MEAN_MOTION_DOT":0.00010835,"MEAN_MOTION_DDOT":0},{"OBJECT_NAME":"FREGAT DEB (TANK)","OBJECT_ID":"2011-037B","EPOCH":"2026-03-09T23:07:30.247392","MEAN_MOTION":11.46798754,"ECCENTRICITY":0.18125906,"INCLINATION":51.4389,"RA_OF_ASC_NODE":5.165,"ARG_OF_PERICENTER":176.383,"MEAN_ANOMALY":185.2412,"EPHEMERIS_TYPE":0,"CLASSIFICATION_TYPE":"U","NORAD_CAT_ID":37756,"ELEMENT_SET_NO":999,"REV_AT_EPOCH":60384,"BSTAR":0.00086720418,"MEAN_MOTION_DOT":4.309e-5,"MEAN_MOTION_DDOT":0}]
